{
  "type": "FeatureCollection",
  "features": [
    {
      "type": "Feature",
      "geometry": {
        "type": "Point",
        "coordinates": [
          -75.00708009,
          46.02648114
        ]
      },
      "properties": {
        "site": "La Loutre Graphite Mine",
        "location": "Lomiko Metals",
        "minerals": "Graphite",
        "funding": "$8.35 million (USD)",
        "category": "Critical Minerals Mine",
        "description": "The La Loutre project, led by Lomiko Metals in Québec, is a proposed natural flake graphite mining and processing project. The Pentagon awarded $8.35 million (USD) through the Defence Production Act to support feasibility studies and graphite processing development. Canada is contributing $4.9 million (CAD) through Natural Resources Canada to support research and pilot-scale upgrading of graphite into battery materials. Due to its high heat resistance, lightweight, and electrical conductivity, graphite is crucial for stealth technology, missiles, and armour.",
        "text": "<strong>Proponent:</strong> Lomiko Metals<br><strong>Minerals:</strong> Graphite<br><strong>Funding:</strong> $8.35 million (USD)"
      }
    },
    {
      "type": "Feature",
      "geometry": {
        "type": "Point",
        "coordinates": [
          -116.7798715,
          63.57754489
        ]
      },
      "properties": {
        "site": "NICO Project",
        "location": "Fortune Minerals",
        "minerals": "Cobalt, gold, bismuth, copper",
        "funding": "$6.4 million (USD)",
        "category": "Critical Minerals Mine",
        "description": "The Pentagon awarded $6.4 million (USD) to Fortune Minerals for its NICO project, which targets cobalt sulfate and bismuth production. The Government of Canada is also contributing funding, providing approximately $7.5 million (CAD) to Fortune Minerals. Together, these investments are intended to advance feasibility work and project development, supporting production of cobalt and bismuth. Bismuth is used in defence electronics, lead-free bullets, and specialized alloys, while cobalt supports magnetic stealth and high-temperature components.",
        "text": "<strong>Proponent:</strong> Fortune Minerals<br><strong>Minerals:</strong> Cobalt, gold, bismuth, copper<br><strong>Funding:</strong> $6.4 million (USD)"
      }
    },
    {
      "type": "Feature",
      "geometry": {
        "type": "Point",
        "coordinates": [
          -130.4136036,
          63.17845462
        ]
      },
      "properties": {
        "site": "Mactung Mine Project",
        "location": "Fireweed Metals",
        "minerals": "Tungsten",
        "funding": "$15.8 million (USD)",
        "category": "Mining Infrastructure",
        "description": "The Mactung project, located on the Yukon–Northwest Territories border and led by Fireweed Metals, is one of the world’s largest undeveloped deposits of tungsten, a critical mineral used in military applications. The project is being advanced with joint public funding from the United States and Canada. The Pentagon has committed approximately $15.8 million (USD) through the Defense Production Act. The Canadian government is matching this support with approximately $12.9 million (CAD) in funding. Together, these investments are intended to support feasibility studies for the required mining access road and early-stage development of the project.",
        "text": "<strong>Proponent:</strong> Fireweed Metals<br><strong>Minerals:</strong> Tungsten<br><strong>Funding:</strong> $15.8 million (USD)"
      }
    },
    {
      "type": "Feature",
      "geometry": {
        "type": "Point",
        "coordinates": [
          -67.0465116,
          46.37028614
        ]
      },
      "properties": {
        "site": "Sission Mine",
        "location": "Northcliff Resources",
        "minerals": "Tungsten, molybdenum",
        "funding": "$15 million (USD)",
        "category": "Critical Minerals Mine",
        "description": "The Sisson project, led by Northcliff Resources in New Brunswick, is a proposed open-pit mine targeting the critical minerals tungsten and molybdenum. The project received $15 million (USD) from the Pentagon through the Defence Production Act to support pre-construction work and feasibility updates. Canada has also committed up to $8.2 million (CAD) through Natural Resources Canada to advance engineering and development planning.",
        "text": "<strong>Proponent:</strong> Northcliff Resources<br><strong>Minerals:</strong> Tungsten, molybdenum<br><strong>Funding:</strong> $15 million (USD)"
      }
    },
    {
      "type": "Feature",
      "geometry": {
        "type": "Point",
        "coordinates": [
          -73.52419717,
          45.37260798
        ]
      },
      "properties": {
        "site": "Nano One Cathode Factory (Candiac location)",
        "location": "Nano One Materials Corp.",
        "minerals": "Manufacturing of lithium iron phosphate cathodes",
        "funding": "$12.9 million (USD)",
        "category": "Refining and Manufacturing",
        "description": "Nano One Materials Corp. produces lithium iron phosphate (LFP) cathode active materials used in battery supply chains. The Pentagon awarded $12.9 million (USD) through the Defence Production Act to expand Nano One’s facilities in Québec and British Columbia. LFP cathode materials are a key component in lithium-ion batteries, with applications in both energy storage and military systems. The Government of Canada has also provided support for the project, contributing over $20 million (CAD) in funding and complementary investments.",
        "text": "<strong>Proponent:</strong> Nano One Materials Corp.<br><strong>Minerals:</strong> Manufacturing of lithium iron phosphate cathodes<br><strong>Funding:</strong> $12.9 million (USD)"
      }
    },
    {
      "type": "Feature",
      "geometry": {
        "type": "Point",
        "coordinates": [
          -122.9135826,
          49.25122975
        ]
      },
      "properties": {
        "site": "Nano One Cathode Factory (Vancouver Location)",
        "location": "Nano One Materials Corp.",
        "minerals": "Manufacturing of lithium iron phosphate cathodes",
        "funding": "$12.9 million (USD)",
        "category": "Refining and Manufacturing",
        "description": "Nano One Materials Corp. produces lithium iron phosphate (LFP) cathode active materials used in battery supply chains. The Pentagon awarded $12.9 million (USD) through the Defence Production Act to expand Nano One’s facilities in Québec and British Columbia. LFP cathode materials are a key component in lithium-ion batteries, with applications in both energy storage and military systems. The Government of Canada has also provided support for the project, contributing over $20 million (CAD) in funding and complementary investments.",
        "text": "<strong>Proponent:</strong> Nano One Materials Corp.<br><strong>Minerals:</strong> Manufacturing of lithium iron phosphate cathodes<br><strong>Funding:</strong> $12.9 million (USD)"
      }
    },
    {
      "type": "Feature",
      "geometry": {
        "type": "Point",
        "coordinates": [
          -79.62214571,
          47.40651521
        ]
      },
      "properties": {
        "site": "Electra Cobalt Refinery",
        "location": "Electra Battery Minerals",
        "minerals": "Cobalt",
        "funding": "$20 million (USD)",
        "category": "Refining and Manufacturing",
        "description": "Electra Battery Materials’ cobalt refinery is being developed to produce cobalt sulfate—a key precursor material used in lithium-ion batteries. The Pentagon awarded $20 million (USD) through the Defence Production Act to support construction of an industrial-scale hydrometallurgical plant and establish North American production capacity. The Government of Canada has also contributed funding, providing approximately $5 million (CAD) to support related development work at the same refinery site. Cobalt sulfate produced at the facility will be used in large-capacity batteries for both commercial use and military systems.",
        "text": "<strong>Proponent:</strong> Electra Battery Minerals<br><strong>Minerals:</strong> Cobalt<br><strong>Funding:</strong> $20 million (USD)"
      }
    },
    {
      "type": "Feature",
      "geometry": {
        "type": "Point",
        "coordinates": [
          -123.1191065,
          49.2849983
        ]
      },
      "properties": {
        "site": "Lithium Americas Headquarters",
        "location": "Lithium Americas",
        "minerals": "Lithium (Thacker Pass mine, Nevada)",
        "funding": "5 per cent equity stake",
        "category": "Canadian-Domiciled Companies",
        "description": "Lithium Americas is a Vancouver-headquartered company developing the Thacker Pass lithium mine in Nevada, one of the world’s largest lithium projects. The US Department of Energy is taking a 5 per cent equity stake in Lithium Americas and a 5 per cent stake in the Thacker Pass joint venture with General Motors, alongside changes to an approximately $2.3 billion (USD) federal loan package. The project targets lithium carbonate for battery production and is expected to produce 40,000 tonnes of battery-quality lithium carbonate per year in its first phase.",
        "text": "<strong>Proponent:</strong> Lithium Americas<br><strong>Minerals:</strong> Lithium (Thacker Pass mine, Nevada)<br><strong>Funding:</strong> 5 per cent equity stake"
      }
    },
    {
      "type": "Feature",
      "geometry": {
        "type": "Point",
        "coordinates": [
          -123.117244,
          49.2833947
        ]
      },
      "properties": {
        "site": "Trilogy Metals Headquarters",
        "location": "Trilogy Metals",
        "minerals": "Copper, cobalt, zinc, lead (Ambler Road project, Alaska)",
        "funding": "$35.6 million (USD)",
        "category": "Canadian-Domiciled Companies",
        "description": "The Pentagon is investing $35.6 million (USD) in Trilogy Metals, a Vancouver-based mining company, giving the US government an approximately 10 per cent ownership stake, with warrants to purchase an additional 7.5 per cent. The investment is intended to advance exploration and development of Trilogy’s Alaska mineral projects and support access to critical minerals outside Chinese-controlled supply chains. The Ambler Access Project is a proposed 211-mile industrial road in northwest Alaska, a district that contains copper, zinc, cobalt, silver, gold, lead and other strategic metals.",
        "text": "<strong>Proponent:</strong> Trilogy Metals<br><strong>Minerals:</strong> Copper, cobalt, zinc, lead (Ambler Road project, Alaska)<br><strong>Funding:</strong> $35.6 million (USD)"
      }
    },
    {
      "type": "Feature",
      "geometry": {
        "type": "Point",
        "coordinates": [
          -64.33625996,
          56.30564852
        ]
      },
      "properties": {
        "site": "Strange Lake Rare Earth Mining Project",
        "location": "Torngat Metals",
        "minerals": "Rare earth elements (neodymium, praseodymium, dysprosium, terbium)",
        "funding": "Torngat will sell REEs to Vacuumschmelze (VAC). E-VAC Magnetics, a VAC subsidiary, has signed agreement with the Pentagon to build a magnet manufacturing facility in South Carolina.",
        "category": "Mining Infrastructure",
        "description": "The Strange Lake project, led by Torngat Metals, is a proposed $2 billion (USD) rare earth mining project in northern Québec and Labrador. It targets heavy rare earth elements such as dysprosium and terbium, which are used in weapons and military aircraft manufacturing. The project is majority-owned by US-based Cerberus Capital Management and is expected to supply materials to global magnet manufacturers linked to military supply chains. Canadian governments have provided political and financial support, though there are no binding requirements on how the minerals will ultimately be used.",
        "text": "<strong>Proponent:</strong> Torngat Metals<br><strong>Minerals:</strong> Rare earth elements (neodymium, praseodymium, dysprosium, terbium)<br><strong>Funding:</strong> Torngat will sell REEs to Vacuumschmelze (VAC). E-VAC Magnetics, a VAC subsidiary, has signed agreement with the Pentagon to build a magnet manufacturing facility in South Carolina."
      }
    },
    {
      "type": "Feature",
      "geometry": {
        "type": "Point",
        "coordinates": [
          -86.29649065,
          52.74226113
        ]
      },
      "properties": {
        "site": "Ring of Fire",
        "location": "Wyloo Metals",
        "minerals": "Copper, nickle, chromium, platinum group elements",
        "funding": "Not yet announced",
        "category": "Critical Minerals Mine",
        "description": "The Ring of Fire is a proposed mining district in northern Ontario’s James Bay Lowlands, a 5,000-km² mineral-rich region often promoted as central to Canada’s clean-tech future. It sits within the world's second largest peatland complex. While governments frame the region as a source of minerals for the green transition, the US increasingly views northern Ontario as a stable supply source for military industries. Wyloo Metals has confirmed “initial discussions” with the Pentagon about supplying minerals to the US. Several First Nations, including Neskantaga First Nation, have not consented to mining or the proposed access road.",
        "text": "<strong>Proponent:</strong> Wyloo Metals<br><strong>Minerals:</strong> Copper, nickle, chromium, platinum group elements<br><strong>Funding:</strong> Not yet announced"
      }
    }
  ]
}
